NORAD_CAT_ID,OBJECT_NAME,OBJECT_TYPE,EPOCH,MEAN_MOTION,ECCENTRICITY,INCLINATION,RA_OF_ASC_NODE,ARG_OF_PERICENTER,MEAN_ANOMALY,BSTAR,MEAN_MOTION_DOT,MEAN_MOTION_DDOT,TLE_LINE0,TLE_LINE1,TLE_LINE2,SEMIMAJOR_AXIS,PERIOD,APOGEE,PERIGEE,DECAYED
54799.0,STARLINK-5421,PAYLOAD,2024-04-18 13:17:33,15.08836643,0.0001282,53.216,237.2247,84.1959,275.918,7.3656e-05,8.84e-06,0.0,0 STARLINK-5421,1 54799U 22175AT  24109.55386411  .00000884  00000-0  73656-4 0  9991,2 54799  53.2160 237.2247 0001282  84.1959 275.9180 15.08836643 76086,6917.891,95.438,540.643,538.869,0.0
54799.0,STARLINK-5421,PAYLOAD,2024-04-18 14:52:56,15.0884279,0.0001356,53.2159,236.9234,77.5795,282.5349,7.7672e-05,9.49e-06,0.0,0 STARLINK-5421,1 54799U 22175AT  24109.62010143  .00000949  00000-0  77672-4 0  9999,2 54799  53.2159 236.9234 0001356  77.5795 282.5349 15.08842790 76094,6917.872,95.437,540.675,538.799,0.0
54799.0,STARLINK-5421,PAYLOAD,2024-04-19 13:08:20,15.08845138,0.0001554,53.2168,232.76,92.4019,267.7151,0.00031724,4.765e-05,0.0,0 STARLINK-5421,1 54799U 22175AT  24110.54746124  .00004765  00000-0  31724-3 0  9994,2 54799  53.2168 232.7600 0001554  92.4019 267.7151 15.08845138 74071,6917.865,95.437,540.805,538.655,0.0
54799.0,STARLINK-5421,PAYLOAD,2024-04-19 14:43:43,15.08847477,0.0001599,53.2171,232.4626,94.7073,265.4101,0.00034844,5.263e-05,0.0,0 STARLINK-5421,1 54799U 22175AT  24110.61370029  .00005263  00000-0  34844-3 0  9999,2 54799  53.2171 232.4626 0001599  94.7073 265.4101 15.08847477 76243,6917.858,95.437,540.829,538.616,0.0
54799.0,STARLINK-5421,PAYLOAD,2024-04-20 14:34:30,15.08842492,0.0001424,53.2169,228.0012,102.0946,258.0206,1.473e-06,-2.65e-06,0.0,0 STARLINK-5421,1 54799U 22175AT  24111.60729707 -.00000265  00000-0  14730-5 0  9992,2 54799  53.2169 228.0012 0001424 102.0946 258.0206 15.08842492 76391,6917.873,95.437,540.723,538.753,0.0
54799.0,STARLINK-5421,PAYLOAD,2024-04-20 17:45:16,15.0884214,0.0001482,53.217,227.4082,103.6316,256.4841,-5.7537e-06,-3.8e-06,0.0,0 STARLINK-5421,1 54799U 22175AT  24111.73977682 -.00000380  00000-0 -57537-5 0  9994,2 54799  53.2170 227.4082 0001482 103.6316 256.4841 15.08842140 74255,6917.874,95.437,540.764,538.714,0.0
54799.0,STARLINK-5421,PAYLOAD,2024-04-21 12:49:55,15.08822423,0.0001345,53.2177,223.8387,111.1007,249.0129,9.3392e-05,1.198e-05,0.0,0 STARLINK-5421,1 54799U 22175AT  24112.53466723  .00001198  00000-0  93392-4 0  9996,2 54799  53.2177 223.8387 0001345 111.1007 249.0129 15.08822423 76531,6917.934,95.439,540.73,538.869,0.0
54799.0,STARLINK-5421,PAYLOAD,2024-04-21 17:36:04,15.08839452,0.0001493,53.2169,222.9449,111.3129,248.8022,-7.0474e-05,-1.409e-05,0.0,0 STARLINK-5421,1 54799U 22175AT  24112.73338158 -.00001409  00000-0 -70474-4 0  9991,2 54799  53.2169 222.9449 0001493 111.3129 248.8022 15.08839452 76564,6917.882,95.438,540.78,538.714,0.0
54799.0,STARLINK-5421,PAYLOAD,2024-04-22 11:05:20,15.0880986,0.0001233,53.2174,219.6746,98.0295,262.0837,-0.00013537,-2.44e-05,0.0,0 STARLINK-5421,1 54799U 22175AT  24113.46204475 -.00002440  00000-0 -13537-3 0  9998,2 54799  53.2174 219.6746 0001233  98.0295 262.0837 15.08809860 74515,6917.973,95.439,540.691,538.985,0.0
54799.0,STARLINK-5421,PAYLOAD,2024-04-22 12:40:43,15.08811178,0.0001156,53.2177,219.3786,88.3188,271.7936,-0.00012754,-2.315e-05,0.0,0 STARLINK-5421,1 54799U 22175AT  24113.52828510 -.00002315  00000-0 -12754-3 0  9998,2 54799  53.2177 219.3786 0001156  88.3188 271.7936 15.08811178 76688,6917.968,95.439,540.633,539.034,0.0
54799.0,STARLINK-5421,PAYLOAD,2024-04-23 12:31:30,15.08826943,0.0001798,53.2174,214.9215,54.1618,305.9541,9.9284e-05,1.292e-05,0.0,0 STARLINK-5421,1 54799U 22175AT  24114.52187910  .00001292  00000-0  99284-4 0  9996,2 54799  53.2174 214.9215 0001798  54.1618 305.9541 15.08826943 74679,6917.92,95.438,541.029,538.541,0.0
54799.0,STARLINK-5421,PAYLOAD,2024-04-23 14:06:52,15.08843749,0.0001335,53.217,214.6179,111.2825,248.8309,0.00020174,2.925e-05,0.0,0 STARLINK-5421,1 54799U 22175AT  24114.58810361  .00002925  00000-0  20174-3 0  9990,2 54799  53.2170 214.6179 0001335 111.2825 248.8309 15.08843749 76844,6917.869,95.437,540.657,538.81,0.0
54799.0,STARLINK-5421,PAYLOAD,2024-04-24 12:22:17,15.08825625,0.0001313,53.2182,210.4605,84.0838,276.0304,0.00021241,3.093e-05,0.0,0 STARLINK-5421,1 54799U 22175AT  24115.51548023  .00003093  00000-0  21241-3 0  9990,2 54799  53.2182 210.4605 0001313  84.0838 276.0304 15.08825625 74829,6917.924,95.438,540.698,538.881,0.0
54799.0,STARLINK-5421,PAYLOAD,2024-04-24 13:57:40,15.08826536,0.0001348,53.2184,210.1631,89.7419,270.3728,0.00021503,3.135e-05,0.0,0 STARLINK-5421,1 54799U 22175AT  24115.58171984  .00003135  00000-0  21503-3 0  9993,2 54799  53.2184 210.1631 0001348  89.7419 270.3728 15.08826536 76991,6917.922,95.438,540.719,538.854,0.0
54799.0,STARLINK-5421,PAYLOAD,2024-04-25 12:13:04,15.0884951,0.0001387,53.2182,206.0,80.6718,279.4431,-7.5103e-05,-1.483e-05,0.0,0 STARLINK-5421,1 54799U 22175AT  24116.50907737 -.00001483  00000-0 -75103-4 0  9991,2 54799  53.2182 206.0000 0001387  80.6718 279.4431 15.08849510 74972,6917.851,95.437,540.676,538.757,0.0
54799.0,STARLINK-5421,PAYLOAD,2024-04-26 12:03:50,15.08844385,0.0001311,53.2174,201.5394,94.327,265.7872,7.8412e-05,9.6e-06,0.0,0 STARLINK-5421,1 54799U 22175AT  24117.50267125  .00000960  00000-0  78412-4 0  9995,2 54799  53.2174 201.5394 0001311  94.3270 265.7872 15.08844385 77280,6917.867,95.437,540.639,538.825,0.0
54799.0,STARLINK-5421,PAYLOAD,2024-04-27 11:54:35,15.08873314,0.0001499,53.2187,197.0796,106.5038,253.6119,0.00027265,4.058e-05,0.0,0 STARLINK-5421,1 54799U 22175AT  24118.49624080  .00004058  00000-0  27265-3 0  9992,2 54799  53.2187 197.0796 0001499 106.5038 253.6119 15.08873314 75275,6917.779,95.435,540.681,538.607,0.0
54799.0,STARLINK-5421,PAYLOAD,2024-04-27 15:05:23,15.0884833,0.0001469,53.2183,196.4853,99.9376,260.1782,5.6303e-05,6.08e-06,0.0,0 STARLINK-5421,1 54799U 22175AT  24118.62874054  .00000608  00000-0  56303-4 0  9998,2 54799  53.2183 196.4853 0001469  99.9376 260.1782 15.08848330 75296,6917.855,95.437,540.736,538.704,0.0
54799.0,STARLINK-5421,PAYLOAD,2024-04-28 05:23:54,15.08822348,0.0001074,53.2182,193.8101,88.1199,271.9916,-0.00025263,-4.304e-05,0.0,0 STARLINK-5421,1 54799U 22175AT  24119.22493093 -.00004304  00000-0 -25263-3 0  9994,2 54799  53.2182 193.8101 0001074  88.1199 271.9916 15.08822348 75387,6917.934,95.439,540.542,539.056,0.0
54799.0,STARLINK-5421,PAYLOAD,2024-04-28 11:45:26,15.08830393,0.0001297,53.217,192.6211,91.1484,268.9656,-0.00017602,-3.087e-05,0.0,0 STARLINK-5421,1 54799U 22175AT  24119.48988512 -.00003087  00000-0 -17602-3 0  9992,2 54799  53.2170 192.6211 0001297  91.1484 268.9656 15.08830393 75422,6917.91,95.438,540.672,538.878,0.0
54799.0,STARLINK-5421,PAYLOAD,2024-04-28 21:17:44,15.08838028,0.0001344,53.2176,190.8367,93.4237,266.6909,-9.1343e-05,-1.741e-05,0.0,0 STARLINK-5421,1 54799U 22175AT  24119.88731843 -.00001741  00000-0 -91343-4 0  9999,2 54799  53.2176 190.8367 0001344  93.4237 266.6909 15.08838028 77649,6917.886,95.438,540.681,538.822,0.0
54799.0,STARLINK-5421,PAYLOAD,2024-04-29 05:14:40,15.08828753,0.0001257,53.217,189.3487,96.7988,263.3147,5.6517e-05,6.11e-06,0.0,0 STARLINK-5421,1 54799U 22175AT  24120.21851963  .00000611  00000-0  56517-4 0  9991,2 54799  53.2170 189.3487 0001257  96.7988 263.3147 15.08828753 75539,6917.915,95.438,540.649,538.91,0.0
54799.0,STARLINK-5421,PAYLOAD,2024-04-29 11:36:12,15.0883346,0.0001226,53.2172,188.161,95.3009,264.8123,0.00011991,1.621e-05,0.0,0 STARLINK-5421,1 54799U 22175AT  24120.48347687  .00001621  00000-0  11991-3 0  9991,2 54799  53.2172 188.1610 0001226  95.3009 264.8123 15.08833460 77736,6917.9,95.438,540.614,538.917,0.0
54799.0,STARLINK-5421,PAYLOAD,2024-04-29 21:08:30,15.08859997,0.0001408,53.2176,186.3762,103.0907,257.0243,-9.8153e-05,-1.851e-05,0.0,0 STARLINK-5421,1 54799U 22175AT  24120.88090294 -.00001851  00000-0 -98153-4 0  9997,2 54799  53.2176 186.3762 0001408 103.0907 257.0243 15.08859997 75631,6917.819,95.436,540.658,538.71,0.0
54799.0,STARLINK-5421,PAYLOAD,2024-04-30 09:51:36,15.08829795,0.0001513,53.2184,183.998,98.704,261.4124,0.00015493,2.178e-05,0.0,0 STARLINK-5421,1 54799U 22175AT  24121.41084145  .00002178  00000-0  15493-3 0  9991,2 54799  53.2184 183.9980 0001513  98.7040 261.4124 15.08829795 75719,6917.912,95.438,540.823,538.73,0.0
54799.0,STARLINK-5421,PAYLOAD,2024-04-30 20:59:18,15.08840301,0.0001511,53.2188,181.9163,96.7402,263.3762,0.00014815,2.071e-05,0.0,0 STARLINK-5421,1 54799U 22175AT  24121.87451668  .00002071  00000-0  14815-3 0  9998,2 54799  53.2188 181.9163 0001511  96.7402 263.3762 15.08840301 77944,6917.879,95.438,540.79,538.699,0.0
54799.0,STARLINK-5421,PAYLOAD,2024-05-01 03:20:50,15.08843807,0.0001735,53.2193,180.7277,101.3288,258.7899,6.4211e-05,7.34e-06,0.0,0 STARLINK-5421,1 54799U 22175AT  24122.13947717  .00000734  00000-0  64211-4 0  9993,2 54799  53.2193 180.7277 0001735 101.3288 258.7899 15.08843807 75824,6917.869,95.437,540.934,538.534,0.0
54799.0,STARLINK-5421,PAYLOAD,2024-05-01 20:50:05,15.08841817,0.0001536,53.2152,177.4543,86.6199,273.4968,4.4271e-05,4.17e-06,0.0,0 STARLINK-5421,1 54799U 22175AT  24122.86811725  .00000417  00000-0  44271-4 0  9994,2 54799  53.2152 177.4543 0001536  86.6199 273.4968 15.08841817 78095,6917.875,95.437,540.802,538.677,0.0
54799.0,STARLINK-5421,PAYLOAD,2024-05-02 12:43:56,15.08840651,0.0001428,53.2155,174.4813,98.7646,261.3508,-8.983e-07,-3.02e-06,0.0,0 STARLINK-5421,1 54799U 22175AT  24123.53051761 -.00000302  00000-0 -89830-6 0  9992,2 54799  53.2155 174.4813 0001428  98.7646 261.3508 15.08840651 76039,6917.878,95.438,540.731,538.756,0.0
54799.0,STARLINK-5421,PAYLOAD,2024-05-03 09:23:57,15.08842895,0.0001518,53.2155,170.6149,88.9264,271.1902,5.2325e-05,5.45e-06,0.0,0 STARLINK-5421,1 54799U 22175AT  24124.39163312  .00000545  00000-0  52325-4 0  9997,2 54799  53.2155 170.6149 0001518  88.9264 271.1902 15.08842895 78329,6917.872,95.437,540.787,538.686,0.0
